<?xml version="1.0" encoding="UTF-8"?>
<ndm xmlns:xsi="http://www.w3.org/2001/XMLSchema-instance" xsi:noNamespaceSchemaLocation="https://sanaregistry.org/r/ndmxml_unqualified/ndmxml-2.0.0-master-2.0.xsd">
<omm id="CCSDS_OMM_VERS" version="2.0">
<header><CREATION_DATE/><ORIGINATOR/></header><body><segment><metadata><OBJECT_NAME>KUIPER-00089</OBJECT_NAME><OBJECT_ID>2025-151U</OBJECT_ID><CENTER_NAME>EARTH</CENTER_NAME><REF_FRAME>TEME</REF_FRAME><TIME_SYSTEM>UTC</TIME_SYSTEM><MEAN_ELEMENT_THEORY>SGP4</MEAN_ELEMENT_THEORY></metadata><data><meanElements><EPOCH>2025-10-23T16:00:03.999744</EPOCH><MEAN_MOTION>14.98177957</MEAN_MOTION><ECCENTRICITY>.00027505</ECCENTRICITY><INCLINATION>51.8940</INCLINATION><RA_OF_ASC_NODE>172.4081</RA_OF_ASC_NODE><ARG_OF_PERICENTER>165.9291</ARG_OF_PERICENTER><MEAN_ANOMALY>129.9641</MEAN_ANOMALY></meanElements><tleParameters><EPHEMERIS_TYPE>0</EPHEMERIS_TYPE><CLASSIFICATION_TYPE>U</CLASSIFICATION_TYPE><NORAD_CAT_ID>64834</NORAD_CAT_ID><ELEMENT_SET_NO>999</ELEMENT_SET_NO><REV_AT_EPOCH>538</REV_AT_EPOCH><BSTAR>.19928007E-2</BSTAR><MEAN_MOTION_DOT>.23717E-3</MEAN_MOTION_DOT><MEAN_MOTION_DDOT>0</MEAN_MOTION_DDOT></tleParameters></data></segment></body></omm>
<omm id="CCSDS_OMM_VERS" version="2.0">
<header><CREATION_DATE/><ORIGINATOR/></header><body><segment><metadata><OBJECT_NAME>KUIPER-00090</OBJECT_NAME><OBJECT_ID>2025-151V</OBJECT_ID><CENTER_NAME>EARTH</CENTER_NAME><REF_FRAME>TEME</REF_FRAME><TIME_SYSTEM>UTC</TIME_SYSTEM><MEAN_ELEMENT_THEORY>SGP4</MEAN_ELEMENT_THEORY></metadata><data><meanElements><EPOCH>2025-10-23T16:00:03.999744</EPOCH><MEAN_MOTION>15.19738796</MEAN_MOTION><ECCENTRICITY>.00045926</ECCENTRICITY><INCLINATION>51.8881</INCLINATION><RA_OF_ASC_NODE>169.1494</RA_OF_ASC_NODE><ARG_OF_PERICENTER>192.3712</ARG_OF_PERICENTER><MEAN_ANOMALY>204.4500</MEAN_ANOMALY></meanElements><tleParameters><EPHEMERIS_TYPE>0</EPHEMERIS_TYPE><CLASSIFICATION_TYPE>U</CLASSIFICATION_TYPE><NORAD_CAT_ID>64835</NORAD_CAT_ID><ELEMENT_SET_NO>999</ELEMENT_SET_NO><REV_AT_EPOCH>553</REV_AT_EPOCH><BSTAR>.15578119E-2</BSTAR><MEAN_MOTION_DOT>.33583E-3</MEAN_MOTION_DOT><MEAN_MOTION_DDOT>0</MEAN_MOTION_DDOT></tleParameters></data></segment></body></omm>
<omm id="CCSDS_OMM_VERS" version="2.0">
<header><CREATION_DATE/><ORIGINATOR/></header><body><segment><metadata><OBJECT_NAME>KUIPER-00091</OBJECT_NAME><OBJECT_ID>2025-151W</OBJECT_ID><CENTER_NAME>EARTH</CENTER_NAME><REF_FRAME>TEME</REF_FRAME><TIME_SYSTEM>UTC</TIME_SYSTEM><MEAN_ELEMENT_THEORY>SGP4</MEAN_ELEMENT_THEORY></metadata><data><meanElements><EPOCH>2025-10-23T16:00:03.999744</EPOCH><MEAN_MOTION>15.07850246</MEAN_MOTION><ECCENTRICITY>.00080042</ECCENTRICITY><INCLINATION>51.8852</INCLINATION><RA_OF_ASC_NODE>170.9930</RA_OF_ASC_NODE><ARG_OF_PERICENTER>174.8468</ARG_OF_PERICENTER><MEAN_ANOMALY>357.0302</MEAN_ANOMALY></meanElements><tleParameters><EPHEMERIS_TYPE>0</EPHEMERIS_TYPE><CLASSIFICATION_TYPE>U</CLASSIFICATION_TYPE><NORAD_CAT_ID>64836</NORAD_CAT_ID><ELEMENT_SET_NO>999</ELEMENT_SET_NO><REV_AT_EPOCH>535</REV_AT_EPOCH><BSTAR>.12859822E-2</BSTAR><MEAN_MOTION_DOT>.19717E-3</MEAN_MOTION_DOT><MEAN_MOTION_DDOT>0</MEAN_MOTION_DDOT></tleParameters></data></segment></body></omm>
<omm id="CCSDS_OMM_VERS" version="2.0">
<header><CREATION_DATE/><ORIGINATOR/></header><body><segment><metadata><OBJECT_NAME>KUIPER-00092</OBJECT_NAME><OBJECT_ID>2025-151X</OBJECT_ID><CENTER_NAME>EARTH</CENTER_NAME><REF_FRAME>TEME</REF_FRAME><TIME_SYSTEM>UTC</TIME_SYSTEM><MEAN_ELEMENT_THEORY>SGP4</MEAN_ELEMENT_THEORY></metadata><data><meanElements><EPOCH>2025-10-23T16:00:03.999744</EPOCH><MEAN_MOTION>14.82158122</MEAN_MOTION><ECCENTRICITY>.00075692</ECCENTRICITY><INCLINATION>51.8983</INCLINATION><RA_OF_ASC_NODE>176.5118</RA_OF_ASC_NODE><ARG_OF_PERICENTER>138.3406</ARG_OF_PERICENTER><MEAN_ANOMALY>291.3737</MEAN_ANOMALY></meanElements><tleParameters><EPHEMERIS_TYPE>0</EPHEMERIS_TYPE><CLASSIFICATION_TYPE>U</CLASSIFICATION_TYPE><NORAD_CAT_ID>64837</NORAD_CAT_ID><ELEMENT_SET_NO>999</ELEMENT_SET_NO><REV_AT_EPOCH>332</REV_AT_EPOCH><BSTAR>.36053061E-4</BSTAR><MEAN_MOTION_DOT>.62E-6</MEAN_MOTION_DOT><MEAN_MOTION_DDOT>0</MEAN_MOTION_DDOT></tleParameters></data></segment></body></omm>
<omm id="CCSDS_OMM_VERS" version="2.0">
<header><CREATION_DATE/><ORIGINATOR/></header><body><segment><metadata><OBJECT_NAME>KUIPER-00093</OBJECT_NAME><OBJECT_ID>2025-151Y</OBJECT_ID><CENTER_NAME>EARTH</CENTER_NAME><REF_FRAME>TEME</REF_FRAME><TIME_SYSTEM>UTC</TIME_SYSTEM><MEAN_ELEMENT_THEORY>SGP4</MEAN_ELEMENT_THEORY></metadata><data><meanElements><EPOCH>2025-10-23T09:05:16.047744</EPOCH><MEAN_MOTION>14.79951634</MEAN_MOTION><ECCENTRICITY>.0014463</ECCENTRICITY><INCLINATION>51.8993</INCLINATION><RA_OF_ASC_NODE>180.2691</RA_OF_ASC_NODE><ARG_OF_PERICENTER>152.7750</ARG_OF_PERICENTER><MEAN_ANOMALY>207.3973</MEAN_ANOMALY></meanElements><tleParameters><EPHEMERIS_TYPE>0</EPHEMERIS_TYPE><CLASSIFICATION_TYPE>U</CLASSIFICATION_TYPE><NORAD_CAT_ID>64838</NORAD_CAT_ID><ELEMENT_SET_NO>999</ELEMENT_SET_NO><REV_AT_EPOCH>1507</REV_AT_EPOCH><BSTAR>.76982493E-3</BSTAR><MEAN_MOTION_DOT>.5661E-4</MEAN_MOTION_DOT><MEAN_MOTION_DDOT>0</MEAN_MOTION_DDOT></tleParameters></data></segment></body></omm>
<omm id="CCSDS_OMM_VERS" version="2.0">
<header><CREATION_DATE/><ORIGINATOR/></header><body><segment><metadata><OBJECT_NAME>KUIPER-00094</OBJECT_NAME><OBJECT_ID>2025-151Z</OBJECT_ID><CENTER_NAME>EARTH</CENTER_NAME><REF_FRAME>TEME</REF_FRAME><TIME_SYSTEM>UTC</TIME_SYSTEM><MEAN_ELEMENT_THEORY>SGP4</MEAN_ELEMENT_THEORY></metadata><data><meanElements><EPOCH>2025-10-23T16:00:03.999744</EPOCH><MEAN_MOTION>15.04727921</MEAN_MOTION><ECCENTRICITY>.00069267</ECCENTRICITY><INCLINATION>51.8880</INCLINATION><RA_OF_ASC_NODE>172.3644</RA_OF_ASC_NODE><ARG_OF_PERICENTER>163.5192</ARG_OF_PERICENTER><MEAN_ANOMALY>42.9440</MEAN_ANOMALY></meanElements><tleParameters><EPHEMERIS_TYPE>0</EPHEMERIS_TYPE><CLASSIFICATION_TYPE>U</CLASSIFICATION_TYPE><NORAD_CAT_ID>64839</NORAD_CAT_ID><ELEMENT_SET_NO>999</ELEMENT_SET_NO><REV_AT_EPOCH>548</REV_AT_EPOCH><BSTAR>.13760745E-2</BSTAR><MEAN_MOTION_DOT>.19392E-3</MEAN_MOTION_DOT><MEAN_MOTION_DDOT>0</MEAN_MOTION_DDOT></tleParameters></data></segment></body></omm>
<omm id="CCSDS_OMM_VERS" version="2.0">
<header><CREATION_DATE/><ORIGINATOR/></header><body><segment><metadata><OBJECT_NAME>KUIPER-00081</OBJECT_NAME><OBJECT_ID>2025-171A</OBJECT_ID><CENTER_NAME>EARTH</CENTER_NAME><REF_FRAME>TEME</REF_FRAME><TIME_SYSTEM>UTC</TIME_SYSTEM><MEAN_ELEMENT_THEORY>SGP4</MEAN_ELEMENT_THEORY></metadata><data><meanElements><EPOCH>2025-10-23T14:52:50.165184</EPOCH><MEAN_MOTION>15.38015314</MEAN_MOTION><ECCENTRICITY>.00051793</ECCENTRICITY><INCLINATION>51.8747</INCLINATION><RA_OF_ASC_NODE>51.6186</RA_OF_ASC_NODE><ARG_OF_PERICENTER>17.5883</ARG_OF_PERICENTER><MEAN_ANOMALY>342.5283</MEAN_ANOMALY></meanElements><tleParameters><EPHEMERIS_TYPE>0</EPHEMERIS_TYPE><CLASSIFICATION_TYPE>U</CLASSIFICATION_TYPE><NORAD_CAT_ID>65132</NORAD_CAT_ID><ELEMENT_SET_NO>999</ELEMENT_SET_NO><REV_AT_EPOCH>1249</REV_AT_EPOCH><BSTAR>.11864867E-2</BSTAR><MEAN_MOTION_DOT>.44963E-3</MEAN_MOTION_DOT><MEAN_MOTION_DDOT>0</MEAN_MOTION_DDOT></tleParameters></data></segment></body></omm>
<omm id="CCSDS_OMM_VERS" version="2.0">
<header><CREATION_DATE/><ORIGINATOR/></header><body><segment><metadata><OBJECT_NAME>KUIPER-00088</OBJECT_NAME><OBJECT_ID>2025-171B</OBJECT_ID><CENTER_NAME>EARTH</CENTER_NAME><REF_FRAME>TEME</REF_FRAME><TIME_SYSTEM>UTC</TIME_SYSTEM><MEAN_ELEMENT_THEORY>SGP4</MEAN_ELEMENT_THEORY></metadata><data><meanElements><EPOCH>2025-10-23T16:00:03.999744</EPOCH><MEAN_MOTION>15.10782196</MEAN_MOTION><ECCENTRICITY>.00074089</ECCENTRICITY><INCLINATION>51.9052</INCLINATION><RA_OF_ASC_NODE>53.9773</RA_OF_ASC_NODE><ARG_OF_PERICENTER>15.7369</ARG_OF_PERICENTER><MEAN_ANOMALY>62.3758</MEAN_ANOMALY></meanElements><tleParameters><EPHEMERIS_TYPE>0</EPHEMERIS_TYPE><CLASSIFICATION_TYPE>U</CLASSIFICATION_TYPE><NORAD_CAT_ID>65133</NORAD_CAT_ID><ELEMENT_SET_NO>999</ELEMENT_SET_NO><REV_AT_EPOCH>587</REV_AT_EPOCH><BSTAR>-.44592083E-2</BSTAR><MEAN_MOTION_DOT>-.74503E-3</MEAN_MOTION_DOT><MEAN_MOTION_DDOT>0</MEAN_MOTION_DDOT></tleParameters></data></segment></body></omm>

</ndm>
