KUIPER-00089            
1 64834U 25151U   25296.66671295  .00023717  00000+0  19928-2 0  9995
2 64834  51.8940 172.4081 0002750 165.9291 129.9641 14.98177957  5380
KUIPER-00090            
1 64835U 25151V   25296.66671295  .00033583  00000+0  15578-2 0  9995
2 64835  51.8881 169.1494 0004593 192.3712 204.4500 15.19738796  5533
KUIPER-00091            
1 64836U 25151W   25296.66671295  .00019717  00000+0  12860-2 0  9990
2 64836  51.8852 170.9930 0008004 174.8468 357.0302 15.07850246  5358
KUIPER-00092            
1 64837U 25151X   25296.66671295  .00000062  00000+0  36053-4 0  9996
2 64837  51.8983 176.5118 0007569 138.3406 291.3737 14.82158122  3329
KUIPER-00093            
1 64838U 25151Y   25296.37865795  .00005661  00000+0  76982-3 0  9999
2 64838  51.8993 180.2691 0014463 152.7750 207.3973 14.79951634 15071
KUIPER-00094            
1 64839U 25151Z   25296.66671295  .00019392  00000+0  13761-2 0  9993
2 64839  51.8880 172.3644 0006927 163.5192  42.9440 15.04727921  5488
KUIPER-00081            
1 65132U 25171A   25296.62002506  .00044963  00000+0  11865-2 0  9996
2 65132  51.8747  51.6186 0005179  17.5883 342.5283 15.38015314 12496
KUIPER-00088            
1 65133U 25171B   25296.66671295 -.00074503  00000+0 -44592-2 0  9996
2 65133  51.9052  53.9773 0007409  15.7369  62.3758 15.10782196  5878
